[Satellite]
VERSION=1.1
NAME=EXACTVIEW-1 (ADS-1B)
NICKNAME=EXACTVIEW-1 (ADS-1B)
TLE1=1 38709U 12039C   17186.25672696 -.00000008  00000-0  17110-4 0  9991
TLE2=2 38709  99.0996 163.3840 0010455 195.9880 164.0970 14.23945662257408
